{
"type": "FeatureCollection",
"name": "KNK_HN",
"crs": { "type": "name", "properties": { "name": "urn:ogc:def:crs:OGC:1.3:CRS84" } },
"features": [
{ "type": "Feature", "properties": { "Name": "Công ty cổ phần Dệt Công nghiệp Hà Nội", "STT": 173, "Diachi": "93 đường Lĩnh Nam, phường Mai Động, quận Hoàng Mai, thành phố Hà Nội", "Nganhnghe": "Sản xuất vải mành làm lốp xe và vải địa kỹ thuật không dệt", "TieuthuTOE": 1682.0, "Nganh": "Ngành công thương", "Link": "https://drive.google.com/file/d/1CbIuVmQ-t8c4l1fZCKSe1H3PHbIjeyo7/view?usp=drivesdk" }, "geometry": { "type": "Point", "coordinates": [ 105.868560700000046, 20.987110100000052, 0.0 ] } },
{ "type": "Feature", "properties": { "Name": "Công ty Giấy Tissue Sông Đuống", "STT": 174, "Diachi": "Số 672 đường Ngô Gia Tự, phường Đức Giang, quận Long Biên, thành phố Hà Nội", "Nganhnghe": "Sản xuất giấy tissue cuộn lớn và gỗ dán", "TieuthuTOE": 1375.0, "Nganh": "Ngành công thương", "Link": "https://drive.google.com/file/d/1-Ze0JDAnk7k6HwPJgPhDFaEpcI7BiNdk/view?usp=drivesdk" }, "geometry": { "type": "Point", "coordinates": [ 105.908370900000079, 21.075526300000035, 0.0 ] } },
{ "type": "Feature", "properties": { "Name": "Công ty cổ phần Nhựa Hà Nội", "STT": 175, "Diachi": "Tổ 12 phường Phúc Lợi, quận Long Biên, thành phố Hà Nội", "Nganhnghe": "Sản xuất, kinh doanh khuôn mẫu và các sản phẩm nhựa công nghiệp", "TieuthuTOE": 1956.0, "Nganh": "Ngành công thương", "Link": "https://drive.google.com/file/d/16gNSFwnlkYYjyvPjIFNmlMOhmkwWQYWq/view?usp=drivesdk" }, "geometry": { "type": "Point", "coordinates": [ 105.91729040000007, 21.037197, 0.0 ] } },
{ "type": "Feature", "properties": { "Name": "Công ty TNHH Daiwa Plastics Thăng Long", "STT": 176, "Diachi": "Lô K8 khu công nghiệp Thăng Long, xã Võng La, huyện Đông Anh, thành phố Hà Nội", "Nganhnghe": "Sản xuất các chi tiết từ nhựa", "TieuthuTOE": 1518.0, "Nganh": "Ngành công thương", "Link": "https://drive.google.com/file/d/1_GXHLT5rOBzqqDc8rh6XJmj98acrcXsO/view?usp=drivesdk" }, "geometry": { "type": "Point", "coordinates": [ 105.77381360000004, 21.113086100000032, 0.0 ] } },
{ "type": "Feature", "properties": { "Name": "Công ty TNHH Ogino Việt Nam", "STT": 177, "Diachi": "Lô N9 khu công nghiệp Thăng Long, xã Võng La, huyện Đông Anh, thành phố Hà Nội", "Nganhnghe": "Gia công, chế tạo chi tiết cơ khí chính xác", "TieuthuTOE": 1227.0, "Nganh": "Ngành công thương", "Link": "https://drive.google.com/file/d/1kkXGS7Tqzm3Hq5Rrc6LyDcAknqZBpdZC/view?usp=drivesdk" }, "geometry": { "type": "Point", "coordinates": [ 105.763537300000053, 21.113552100000049, 0.0 ] } },
{ "type": "Feature", "properties": { "Name": "Công ty TNHH Hệ thống dây Sumi Hanel", "STT": 178, "Diachi": "Đường công nghiệp 4, khu công nghiệp Sài Đồng B, quận Long Biên, thành phố Hà Nội", "Nganhnghe": "Sản xuất linh kiện điện tử", "TieuthuTOE": 1522.0, "Nganh": "Ngành công thương", "Link": "https://drive.google.com/file/d/1cnEKhDKBX4wNJzET6CDyO1_5smUbGN9l/view?usp=drivesdk" }, "geometry": { "type": "Point", "coordinates": [ 105.902242500000057, 21.028224600000044, 0.0 ] } },
{ "type": "Feature", "properties": { "Name": "Công ty TNHH Matsuo Industries Việt Nam", "STT": 179, "Diachi": "Lô C10, khu công nghiệp Thăng Long, xã Kim Chung, huyện Đông Anh, thành phố Hà Nội", "Nganhnghe": "Sản xuất phụ tùng và bộ phận phụ trợ cho xe có động cơ và động cơ xe", "TieuthuTOE": 1433.0, "Nganh": "Ngành công thương", "Link": "https://drive.google.com/file/d/1p4kfoOWblhkGwILil7zHjYq9c4m0aEsD/view?usp=drivesdk" }, "geometry": { "type": "Point", "coordinates": [ 105.776709, 21.116768100000058, 0.0 ] } },
{ "type": "Feature", "properties": { "Name": "Công ty TNHH FCC Việt Nam", "STT": 180, "Diachi": "Lô A5 khu công nghiệp Thăng Long, xã Võng La, huyện Đông Anh, thành phố Hà Nội", "Nganhnghe": "Sản xuất và lắp ráp ly hợp xe máy, ô tô", "TieuthuTOE": 4598.0, "Nganh": "Ngành công thương", "Link": "https://drive.google.com/file/d/1cqMfMTQiBTtRmawS4hqkyivRCEZ2T-kA/view?usp=drivesdk" }, "geometry": { "type": "Point", "coordinates": [ 105.780453100000045, 21.116679900000065, 0.0 ] } },
{ "type": "Feature", "properties": { "Name": "Công ty TNHH Parker Processing Việt Nam", "STT": 181, "Diachi": "Lô C1-2 khu công nghiệp Thăng Long, huyện Đông Anh, thành phố Hà Nội", "Nganhnghe": "Gia công cơ khí, xử lý và tráng phủ kim loại", "TieuthuTOE": 2325.0, "Nganh": "Ngành công thương", "Link": "https://drive.google.com/file/d/1dgnnJlckfrsMCYeobKFCCHMkk-4Bba23/view?usp=drivesdk" }, "geometry": { "type": "Point", "coordinates": [ 105.77859710000007, 21.119492800000046, 0.0 ] } },
{ "type": "Feature", "properties": { "Name": "Công ty TNHH Hanwha Aero Engines", "STT": 182, "Diachi": "Khu công nghiệp công nghệ cao I, khu công nghệ cao Hòa Lạc, xã Hạ Bằng, huyện Thạch Thất, thành phố Hà Nội", "Nganhnghe": "Sản xuất máy bay, tàu vũ trụ và máy móc liên quan", "TieuthuTOE": 1405.0, "Nganh": "Ngành công thương", "Link": "https://drive.google.com/file/d/1N8wbr8v2tQ_DrK5UzfDJrnvitMJuVHv4/view?usp=drivesdk" }, "geometry": { "type": "Point", "coordinates": [ 105.546702400000072, 21.002254100000073, 0.0 ] } },
{ "type": "Feature", "properties": { "Name": "Công ty cổ phần Xích líp Đông Anh", "STT": 183, "Diachi": "Số 11, tổ 47, thị trấn Đông Anh, huyện Đông Anh, thành phố Hà Nội", "Nganhnghe": "Sản xuất phụ tùng xe máy", "TieuthuTOE": 7262.0, "Nganh": "Ngành công thương", "Link": "https://drive.google.com/file/d/1FjhkmqYdaAcCk2MLBv7C_Gq5QbdA6rXS/view?usp=drivesdk" }, "geometry": { "type": "Point", "coordinates": [ 105.857563300000038, 21.178044100000022, 0.0 ] } },
{ "type": "Feature", "properties": { "Name": "Công ty liên doanh TNHH Crown Hà Nội", "STT": 184, "Diachi": "Km 24, quốc lộ 1, xã Quất Động, huyện Thường Tín, thành phố Hà Nội", "Nganhnghe": "Sản xuất lon nhôm 2 mảnh và nút khoén", "TieuthuTOE": 2488.0, "Nganh": "Ngành công thương", "Link": "https://drive.google.com/file/d/1IwDG-J4yH1lgp2OFNnENuuVlux3BG3Ok/view?usp=drivesdk" }, "geometry": { "type": "Point", "coordinates": [ 105.876110700000083, 20.832879400000024, 0.0 ] } },
{ "type": "Feature", "properties": { "Name": "Công ty TNHH Công nghệ KYB Việt Nam", "STT": 185, "Diachi": "Lô I10-I11-I12 khu công nghiệp Thăng Long, xã Võng La, huyện Đông Anh, thành phố Hà Nội", "Nganhnghe": "Sản xuất phụ tùng và bộ phận phụ trợ cho xe có động cơ và động cơ xe", "TieuthuTOE": 8289.0, "Nganh": "Ngành công thương", "Link": "https://drive.google.com/file/d/1A0WmTZCxdHcg0Wfpe3d7aILY7LM9NUuJ/view?usp=drivesdk" }, "geometry": { "type": "Point", "coordinates": [ 105.777340800000047, 21.111384100000066, 0.0 ] } },
{ "type": "Feature", "properties": { "Name": "Công ty TNHH Yamaha Motor Việt Nam", "STT": 186, "Diachi": "Thôn Bình An, xã Trung Giã, huyện Sóc Sơn, thành phố Hà Nội", "Nganhnghe": "Sản xuất xe máy, xe máy điện", "TieuthuTOE": 3339.0, "Nganh": "Ngành công thương", "Link": "https://drive.google.com/file/d/1Wau44prRrI3dkscvqlm7hfrvHaDjQOBI/view?usp=drivesdk" }, "geometry": { "type": "Point", "coordinates": [ 105.817021, 21.231194800000026, 0.0 ] } },
{ "type": "Feature", "properties": { "Name": "Công ty TNHH Nissei Electric Hà Nội", "STT": 187, "Diachi": "Lô I3 khu công nghiệp Thăng Long, xã Kim Chung, huyện Đông Anh, thành phố Hà Nội", "Nganhnghe": "Sản xuất linh kiện điện tử", "TieuthuTOE": 2613.0, "Nganh": "Ngành công thương", "Link": "https://drive.google.com/file/d/1gFc_4pZPN47T4mG0LT6d-MkoHG27kgvM/view?usp=drivesdk" }, "geometry": { "type": "Point", "coordinates": [ 105.777808200000038, 21.11294810000004, 0.0 ] } },
{ "type": "Feature", "properties": { "Name": "Công ty TNHH Panasonic System Networks Việt Nam", "STT": 188, "Diachi": "Lô J1/2 khu công nghiệp Thăng Long, xã Võng La, huyện Đông Anh, thành phố Hà Nội", "Nganhnghe": "Sản xuất, lắp ráp thiết bị điện tử", "TieuthuTOE": 7345.0, "Nganh": "Ngành công thương", "Link": "https://drive.google.com/file/d/1YUqhdX8rPYqSdIBbYMZ7sfQ8Kg1g0Rg-/view?usp=drivesdk" }, "geometry": { "type": "Point", "coordinates": [ 105.785073300000079, 21.110797700000035, 0.0 ] } },
{ "type": "Feature", "properties": { "Name": "Công ty TNHH Hitachi Astemo Hà Nội", "STT": 189, "Diachi": "Lô M-6 khu công nghiệp Thăng Long, xã Võng La, huyện Đông Anh, Hà Nội", "Nganhnghe": "Sản xuất phụ tùng và bộ phận phụ trợ cho xe có động cơ và động cơ xe", "TieuthuTOE": 2504.0, "Nganh": "Ngành công thương", "Link": "https://drive.google.com/file/d/15XIJJbwGZv3F2Jk0-ds-7bh0UAskaJez/view?usp=drivesdk" }, "geometry": { "type": "Point", "coordinates": [ 105.762827500000071, 21.113523200000031, 0.0 ] } },
{ "type": "Feature", "properties": { "Name": "Công ty TNHH Điện Stanley Việt Nam", "STT": 190, "Diachi": "Xã Dương Xá, huyện Gia Lâm, thành phố Hà Nội", "Nganhnghe": "Sản xuất linh kiện điện tử", "TieuthuTOE": 5213.0, "Nganh": "Ngành công thương", "Link": "https://drive.google.com/file/d/1QARmY519bvQwnzYTppRUXMt5l6UqlcxN/view?usp=drivesdk" }, "geometry": { "type": "Point", "coordinates": [ 105.963382, 21.007708900000068, 0.0 ] } },
{ "type": "Feature", "properties": { "Name": "Công ty TNHH HAL Việt Nam", "STT": 191, "Diachi": "Khu công nghiệp Thăng Long, xã Kim Chung, huyện Đông Anh, thành phố Hà Nội", "Nganhnghe": "Sản xuất khuôn đúc, đúc nhôm cho ngành công nghiệp ô tô", "TieuthuTOE": 5749.0, "Nganh": "Ngành công thương", "Link": "https://drive.google.com/file/d/1Ml8ffq81Aq8jUMubqGM5pH9MJu-auTjk/view?usp=drivesdk" }, "geometry": { "type": "Point", "coordinates": [ 105.773346900000035, 21.118330200000059, 0.0 ] } },
{ "type": "Feature", "properties": { "Name": "Công ty TNHH Canon Việt Nam", "STT": 192, "Diachi": "Lô A1 khu công nghiệp Thăng Long, xã Kim Chung, huyện Đông Anh, thành phố Hà Nội", "Nganhnghe": "Sản xuất linh kiện điện tử", "TieuthuTOE": 5150.0, "Nganh": "Ngành công thương", "Link": "https://drive.google.com/file/d/1kVVQKVLGv5S8uEYFOD4gPTpiGoSQHoon/view?usp=drivesdk" }, "geometry": { "type": "Point", "coordinates": [ 105.77915130000008, 21.121106, 0.0 ] } },
{ "type": "Feature", "properties": { "Name": "Công ty TNHH Hoya Glass Disk Việt Nam", "STT": 193, "Diachi": "Khu J3&4 khu công nghiệp Thăng Long, xã Võng La, huyện Đông Anh, Hà Nội", "Nganhnghe": "Sản xuất nền thủy tinh cho đĩa từ", "TieuthuTOE": 10892.0, "Nganh": "Ngành công thương", "Link": "https://drive.google.com/file/d/1MyLz3qk1znDzvVldNIul97B1eiGp66vR/view?usp=drivesdk" }, "geometry": { "type": "Point", "coordinates": [ 105.778503700000044, 21.110369700000035, 0.0 ] } },
{ "type": "Feature", "properties": { "Name": "Công ty TNHH điện tử Meiko Thăng Long", "STT": 194, "Diachi": "Lô J1-J2 khu công nghiệp Thăng Long, xã Võng La, huyện Đông Anh, thành phố Hà Nội", "Nganhnghe": "Thiết kế, sản xuất, gia công và chế tạo bản mạch in điện tử", "TieuthuTOE": 5958.0, "Nganh": "Ngành công thương", "Link": "https://drive.google.com/file/d/1KIHAf-tpm8R4G69Xq1MIqCb_-LpRHaIp/view?usp=drivesdk" }, "geometry": { "type": "Point", "coordinates": [ 105.782512900000086, 21.110998700000039, 0.0 ] } },
{ "type": "Feature", "properties": { "Name": "Công ty TNHH Linh kiện điện tử SEI", "STT": 195, "Diachi": "Lô C6 khu công nghiệp Thăng Long, xã Võng La, huyện Đông Anh, thành phố Hà Nội", "Nganhnghe": "Sản xuất linh kiện điện tử", "TieuthuTOE": 14790.0, "Nganh": "Ngành công thương", "Link": "https://drive.google.com/file/d/1nFuypbNFrL4JVgeAvxm1EAhPP_BwITwV/view?usp=drivesdk" }, "geometry": { "type": "Point", "coordinates": [ 105.773870400000078, 21.117839600000025, 0.0 ] } },
{ "type": "Feature", "properties": { "Name": "Công ty TNHH Điện tử Meiko Việt Nam", "STT": 196, "Diachi": "Lô CN9 khu công nghiệp Thạch Thất - Quốc Oai, xã Phùng Xá, huyện Thạch Thất, thành phố Hà Nội", "Nganhnghe": "Sản xuất linh kiện điện tử", "TieuthuTOE": 22361.0, "Nganh": "Ngành công thương", "Link": "https://drive.google.com/file/d/1NrLxCxp6p88-VBYZ9kJ6vB-n7JPfJTWi/view?usp=drivesdk" }, "geometry": { "type": "Point", "coordinates": [ 105.628494300000057, 21.007976, 0.0 ] } },
{ "type": "Feature", "properties": { "Name": "Công ty TNHH Khuôn đúc Tsukuba Việt Nam", "STT": 197, "Diachi": "Lô A6 đường Công nghiệp 4, khu công nghiệp Sài Đồng B, phường Thạch Bàn, quận Long Biên, thành phố Hà Nội", "Nganhnghe": "Đúc nhôm", "TieuthuTOE": 3377.0, "Nganh": "Ngành công thương", "Link": "https://drive.google.com/file/d/1sR0x3tCMwspz9A00XSSlZPLhjGgkbkvf/view?usp=drivesdk" }, "geometry": { "type": "Point", "coordinates": [ 105.903717, 21.027965600000073, 0.0 ] } },
{ "type": "Feature", "properties": { "Name": "Công ty TNHH thép An Khánh", "STT": 198, "Diachi": "Khu Thủy lợi 2, xã Tân Minh, huyện Sóc Sơn, thành phố Hà Nội", "Nganhnghe": "Gia công cơ khí, cán kéo kim loại", "TieuthuTOE": 1645.0, "Nganh": "Ngành công thương", "Link": "https://drive.google.com/file/d/1pA_g3mypYGFcB3eANMo65un_CchgvH-2/view?usp=drivesdk" }, "geometry": { "type": "Point", "coordinates": [ 105.860630800000081, 21.286428300000068, 0.0 ] } },
{ "type": "Feature", "properties": { "Name": "Công ty TNHH Nhà máy bia Heineken Việt Nam - Hà Nội", "STT": 199, "Diachi": "Đường 427, xã Vân Tảo, huyện Thường Tín, thành phố Hà Nội", "Nganhnghe": "Sản xuất bia", "TieuthuTOE": 1627.0, "Nganh": "Ngành công thương", "Link": "https://drive.google.com/file/d/1_F-0i6pz9ZWJr9GJvY1hm0lKZhkwaxHm/view?usp=drivesdk" }, "geometry": { "type": "Point", "coordinates": [ 105.889741100000037, 20.870440200000075, 0.0 ] } },
{ "type": "Feature", "properties": { "Name": "Công ty cổ phần Bia Sài Gòn Hà Nội", "STT": 200, "Diachi": "A2, CN8 cụm công nghiệp Từ Liêm, phường Phương Canh, quận Nam Từ Liêm, thành phố Hà Nội", "Nganhnghe": "Sản xuất bia", "TieuthuTOE": 1055.0, "Nganh": "Ngành công thương", "Link": "https://drive.google.com/file/d/1FIww9GhDmNNjlAgffXG5F8aYcgqnFnvk/view?usp=drivesdk" }, "geometry": { "type": "Point", "coordinates": [ 105.742886500000054, 21.039797500000077, 0.0 ] } },
{ "type": "Feature", "properties": { "Name": "Chi nhánh Công ty TNHH nước giải khát Coca-Cola Việt Nam tại Hà Nội", "STT": 201, "Diachi": "Km17 quốc lộ 1A, xã Duyên Thái, huyện Thường Tín, thành phố Hà Nội", "Nganhnghe": "Sản xuất đồ uống không cồn", "TieuthuTOE": 8115.0, "Nganh": "Ngành công thương", "Link": "https://drive.google.com/file/d/1o8CW1XroyLTCSikQNFCtMIgONCb5qJwF/view?usp=drivesdk" }, "geometry": { "type": "Point", "coordinates": [ 105.857630800000038, 20.896961800000042, 0.0 ] } },
{ "type": "Feature", "properties": { "Name": "Công ty TNHH Cao su Inoue Việt Nam", "STT": 202, "Diachi": "Thôn Phú Nhi, xã Thanh Lâm, huyện Mê Linh, thành phố Hà Nội", "Nganhnghe": "Sản xuất săm và lốp của xe máy, xe đạp, xe nâng", "TieuthuTOE": 3340.0, "Nganh": "Ngành công thương", "Link": "https://drive.google.com/file/d/1X9flptKNyn15Bh_cABQIlkJfHKo6VcNO/view?usp=drivesdk" }, "geometry": { "type": "Point", "coordinates": [ 105.737681200000054, 21.185779600000046, 0.0 ] } },
{ "type": "Feature", "properties": { "Name": "Công ty TNHH MTV Cơ khí 17", "STT": 203, "Diachi": "Thôn Xuân Kỳ, xã Đông Xuân, huyện Sóc Sơn, thành phố Hà Nội", "Nganhnghe": "Gia công cơ khí", "TieuthuTOE": 1868.0, "Nganh": "Ngành công thương", "Link": "https://drive.google.com/file/d/1q3lRgFUJ6qmcYwUExydeNjhmtu7CAZDQ/view?usp=drivesdk" }, "geometry": { "type": "Point", "coordinates": [ 105.871652, 21.212206, 0.0 ] } },
{ "type": "Feature", "properties": { "Name": "Công ty cổ phần Cao su Sao Vàng", "STT": 204, "Diachi": "Số 231 đường Nguyễn Trãi, phường Thượng Đình, quận Thanh Xuân, thành phố Hà Nội", "Nganhnghe": "Sản xuất và kinh doanh các sản phẩm cao su", "TieuthuTOE": 4791.0, "Nganh": "Ngành công thương", "Link": "https://drive.google.com/file/d/1blcUn-olIfjaWUdssoJ-GbqHt_Lperab/view?usp=drivesdk" }, "geometry": { "type": "Point", "coordinates": [ 105.814921500000082, 20.99443610000003, 0.0 ] } },
{ "type": "Feature", "properties": { "Name": "Công ty cổ phần bóng đèn phích nước Rạng Đông", "STT": 205, "Diachi": "Số 87-89 phố Hạ Đình, phường Thanh Xuân Trung, quận Thanh Xuân, HN", "Nganhnghe": "Sản xuất và kinh doanh các sản phẩm đèn LED và thiết bị chiếu sáng", "TieuthuTOE": 1500.0, "Nganh": "Ngành công thương", "Link": "https://drive.google.com/file/d/19zdR24hTfrVVQri-dhRn08SCrRDulKmI/view?usp=drivesdk" }, "geometry": { "type": "Point", "coordinates": [ 105.807443, 20.990212, 0.0 ] } },
{ "type": "Feature", "properties": { "Name": "Công ty cổ phần Đồng Phát", "STT": 206, "Diachi": "Khu công nghiệp Thạch Thất - Quốc Oai, thị trấn Quốc Oai, huyện Quốc Oai, thành phố Hà Nội", "Nganhnghe": "Sản xuất sợi, vải dệt", "TieuthuTOE": 4000.0, "Nganh": "Ngành công thương", "Link": "https://drive.google.com/file/d/1WM9KdBOWOO3CtKZJ_hawA88p64BlJyTm/view?usp=drivesdk" }, "geometry": { "type": "Point", "coordinates": [ 105.629157500000076, 21.005069700000035, 0.0 ] } },
{ "type": "Feature", "properties": { "Name": "Công ty TNHH Vietnergy", "STT": 207, "Diachi": "Lô CN2 khu công nghiệp Thạch Thất, thị trấn Quốc Oai, huyện Quốc Oai, thành phố Hà Nội", "Nganhnghe": "Sản xuất pin và ắc quy", "TieuthuTOE": 8600.0, "Nganh": "Ngành công thương", "Link": "https://drive.google.com/file/d/1jziJwCPNMdRVGhF6W4pDzKMdsxioWI5k/view?usp=drivesdk" }, "geometry": { "type": "Point", "coordinates": [ 105.629750600000079, 21.003704300000038, 0.0 ] } },
{ "type": "Feature", "properties": { "Name": "Công ty Thuốc lá Thăng Long", "STT": 208, "Diachi": "Khu công nghiệp Thạch Thất, thị trấn Quốc Oai, huyện Quốc Oai, thành phố Hà Nội", "Nganhnghe": "Sản xuất thuốc lá", "TieuthuTOE": 3300.0, "Nganh": "Ngành công thương", "Link": "https://drive.google.com/file/d/12_7PhxLdhLPKUiAof3HhCtFsruM2U0x2/view?usp=drivesdk" }, "geometry": { "type": "Point", "coordinates": [ 105.637964100000033, 21.004256200000043, 0.0 ] } },
{ "type": "Feature", "properties": { "Name": "Công ty TNHH Dệt Toàn Thắng", "STT": 209, "Diachi": "Xã Phùng Xá, huyện Mỹ Đức, thành phố Hà Nội", "Nganhnghe": "Gia công tẩy nhuộm khăn sợi", "TieuthuTOE": 1708.0, "Nganh": "Ngành công thương", "Link": "https://drive.google.com/file/d/1_XvhTqEHIcsAYewX6kNPdhjza7eWxqT5/view?usp=drivesdk" }, "geometry": { "type": "Point", "coordinates": [ 105.761427400000059, 20.716172800000038, 0.0 ] } },
{ "type": "Feature", "properties": { "Name": "Cảng hàng không quốc tế Nội Bài - Chi nhánh Tổng công ty Cảng hàng không Việt Nam - CTCP", "STT": 29, "Diachi": "Xã Phú Minh, huyện Sóc Sơn, thành phố Hà Nội", "Nganhnghe": "Dịch vụ hỗ trợ vận tải hàng không", "TieuthuTOE": 9308.0, "Nganh": "Ngành GTVT", "Link": "https://drive.google.com/file/d/1z-Vn2NZ3aQIOUwB-JUNQmHzw5V63lRqc/view?usp=drivesdk" }, "geometry": { "type": "Point", "coordinates": [ 105.816479300000083, 21.208477100000039, 0.0 ] } },
{ "type": "Feature", "properties": { "Name": "Tổng công ty hàng không Việt Nam", "STT": 30, "Diachi": "200 Nguyễn Sơn, phường Bồ Đề, quận Long Biên, thành phố Hà Nội", "Nganhnghe": "Vận tải hàng không", "TieuthuTOE": 447388.0, "Nganh": "Ngành GTVT", "Link": "https://drive.google.com/file/d/1kJCnr4er4kvZySLZ-Pl4UguxkamaHxNc/view?usp=drivesdk" }, "geometry": { "type": "Point", "coordinates": [ 105.884703500000057, 21.043359800000076, 0.0 ] } },
{ "type": "Feature", "properties": { "Name": "Công ty cổ phần hàng không Vietjet", "STT": 31, "Diachi": "302/3 Kim Mã, phường Ngọc Khánh, quận Ba Đình, thành phố Hà Nội", "Nganhnghe": "Vận tải hàng không", "TieuthuTOE": 442184.0, "Nganh": "Ngành GTVT", "Link": "https://drive.google.com/file/d/1ZrU4Y45Pq9V5Q80kUsiR8-5rr4R4FRbu/view?usp=drivesdk" }, "geometry": { "type": "Point", "coordinates": [ 105.816437900000039, 21.030872800000054, 0.0 ] } },
{ "type": "Feature", "properties": { "Name": "Công ty cổ phần hàng không Tre Việt", "STT": 32, "Diachi": "265 Cầu Giấy, phường Dịch Vọng, quận Cầu Giấy, thành phố Hà Nội", "Nganhnghe": "Vận tải hàng không", "TieuthuTOE": 196908.0, "Nganh": "Ngành GTVT", "Link": null }, "geometry": { "type": "Point", "coordinates": [ 105.770383800000047, 21.034163200000023, 0.0 ] } },
{ "type": "Feature", "properties": { "Name": "Công ty cổ phần Vincom Retail", "STT": 64, "Diachi": "Số 29 Liễu Giai, phường Ngọc Khánh, quận Ba Đình, thành phố Hà Nội", "Nganhnghe": "Tòa nhà thương mại", "TieuthuTOE": 1137.0, "Nganh": "Ngành xây dựng", "Link": "https://drive.google.com/file/d/1IZXGR1yDUDBbI7v3VggBPg97_HX-dlq1/view?usp=drivesdk" }, "geometry": { "type": "Point", "coordinates": [ 105.814735900000073, 21.031305700000075, 0.0 ] } },
{ "type": "Feature", "properties": { "Name": "Công ty cổ phần Twin-Peaks", "STT": 65, "Diachi": "Số 29 Liễu Giai, phường Ngọc Khánh, quận Ba Đình, thành phố Hà Nội", "Nganhnghe": "Tòa nhà thương mại", "TieuthuTOE": 1157.0, "Nganh": "Ngành xây dựng", "Link": "https://drive.google.com/file/d/1ovh1kY7Vam8p47VFTY--JZmLZegvU-Aa/view?usp=drivesdk" }, "geometry": { "type": "Point", "coordinates": [ 105.813964400000089, 21.031739800000025, 0.0 ] } },
{ "type": "Feature", "properties": { "Name": "Công ty cổ phần DEAHA", "STT": 66, "Diachi": "Số 360 Kim Mã, phường Ngọc Khánh, quận Ba Đình, thành phố Hà Nội", "Nganhnghe": "Tòa nhà thương mại", "TieuthuTOE": 1804.0, "Nganh": "Ngành xây dựng", "Link": null }, "geometry": { "type": "Point", "coordinates": [ 105.812603300000035, 21.030839800000024, 0.0 ] } },
{ "type": "Feature", "properties": { "Name": "Công ty TNHH vận hành Vincom Retail- Tháp Vincom", "STT": 67, "Diachi": "191 Bà Triệu, phường Lê Đại Hành, quận Hai Bà Trưng, thành phố Hà Nội", "Nganhnghe": "Tòa nhà thương mại", "TieuthuTOE": 1758.0, "Nganh": "Ngành xây dựng", "Link": "https://drive.google.com/file/d/1erpeO2jN1dL2lt1xqRNSQLGjSDQ5b6s1/view?usp=drivesdk" }, "geometry": { "type": "Point", "coordinates": [ 105.849579700000049, 21.010879400000078, 0.0 ] } },
{ "type": "Feature", "properties": { "Name": "Công ty TNHH vận hành Vincom Retail- Đô thị Times City", "STT": 68, "Diachi": "458 Minh Khai, phường Vĩnh Tuy, quận Hai Bà Trưng", "Nganhnghe": "Tòa nhà thương mại", "TieuthuTOE": 3995.0, "Nganh": "Ngành xây dựng", "Link": "https://drive.google.com/file/d/1pUySP61CvnfSDp6RoQBtY11-wQtHMCe1/view?usp=drivesdk" }, "geometry": { "type": "Point", "coordinates": [ 105.86854, 20.994819200000052, 0.0 ] } },
{ "type": "Feature", "properties": { "Name": "Khách sạn Sofiel Legend Metropole", "STT": 69, "Diachi": "15 Ngô Quyền, phường Tràng Tiền, quận Hoàn Kiếm, thành phố Hà Nội", "Nganhnghe": "Tòa nhà thương mại", "TieuthuTOE": 1433.0, "Nganh": "Ngành xây dựng", "Link": "https://drive.google.com/file/d/1zW9JpOvty1hHTWh3TpZaei2bdh6AXidr/view?usp=drivesdk" }, "geometry": { "type": "Point", "coordinates": [ 105.856375, 21.025412500000073, 0.0 ] } },
{ "type": "Feature", "properties": { "Name": "Công ty TNHH Lotte Coralis Việt Nam", "STT": 70, "Diachi": "Tầng 23 tòa Đông Trung tâm Lotte Hà Nội, số 54 Liễu Giai, phường cống Vị, quận Ba Đình, thành phố Hà Nội", "Nganhnghe": "Tòa nhà thương mại", "TieuthuTOE": 5986.0, "Nganh": "Ngành xây dựng", "Link": "https://drive.google.com/file/d/17qggjz0kjQZvE2eD8-ZakCrVMWSlwucC/view?usp=drivesdk" }, "geometry": { "type": "Point", "coordinates": [ 105.80805330000004, 21.03298760000007, 0.0 ] } },
{ "type": "Feature", "properties": { "Name": "Khu xử lý chất thải rắn Xuân Sơn", "STT": 12, "Diachi": "Xã Xuân Sơn, thị xã Sơn Tây, Thành phố Hà Nội", "Nganhnghe": "Cơ sở chôn lấp chất thải hợp vệ sinh", "TieuthuTOE": 182500.0, "Nganh": "Ngành TN&MT", "Link": null }, "geometry": { "type": "Point", "coordinates": [ 105.425029300000062, 21.127923300000077, 0.0 ] } },
{ "type": "Feature", "properties": { "Name": "Công ty cổ phần dịch vụ sản xuất Toàn Cầu", "STT": 13, "Diachi": "Nút giao cao tốc Pháp Vân - Cầu Giẽ với đường vành đai 3 trên cao, phường Hoàng Liệt, Thành phố Hà Nội", "Nganhnghe": "Cơ sở nghiền, xử lý tái chế chất thải xây dựng", "TieuthuTOE": 300000.0, "Nganh": "Ngành TN&MT", "Link": "https://drive.google.com/file/d/15naR2-NOghiiHzofNe_jp1YvcBOsE28w/view?usp=drivesdk" }, "geometry": { "type": "Point", "coordinates": [ 105.82216550000004, 20.97734040000006, 0.0 ] } }
]
}
